IRIDIUM 921             
1 24873U 97034E   24170.35966055  .00027949  00000+0  70871-3 0  9996
2 24873  86.3805 287.5331 0003494 219.3264 140.7736 15.39557013475364
IRIDIUM 26              
1 24903U 97043A   24170.51310295  .00000497  00000+0  16295-3 0  9996
2 24903  86.3957 263.1974 0002083  99.4982 260.6450 14.36403901404523
IRIDIUM 22              
1 24907U 97043E   24170.50007680  .00000499  00000+0  16761-3 0  9990
2 24907  86.3960 266.4418 0002204  93.8880 266.2568 14.35292243404593
DUMMY MASS 1            
1 24925U 97048A   24170.60697492  .00000593  00000+0  64325-4 0  9997
2 24925  86.3338 303.3325 0006989  14.8877 345.2551 14.86247521451118
DUMMY MASS 2            
1 24926U 97048B   24170.37448059  .00000617  00000+0  67431-4 0  9993
2 24926  86.3337 304.9836 0008226  23.9131 336.2473 14.86005222450866
IRIDIUM 29              
1 24944U 97051A   24170.64193452  .00000520  00000+0  17333-3 0  9999
2 24944  86.3948 296.2938 0002169  86.9355 273.2090 14.35740457401093
IRIDIUM 33              
1 24946U 97051C   24170.39100419  .00000446  00000+0  15156-3 0  9992
2 24946  86.3862 295.6501 0008086 170.6865 189.4483 14.34391116400580
IRIDIUM 28              
1 24948U 97051E   24170.43593051  .00000553  00000+0  18104-3 0  9992
2 24948  86.3953 294.1024 0002079 105.0882 255.0545 14.36694196401603
